IRIDIUM 921             
1 24873U 97034E   24305.81203863  .00147106  00000+0  19610-2 0  9999
2 24873  86.3780 219.7138 0008974  82.6358 277.5925 15.57584134496299
IRIDIUM 26              
1 24903U 97043A   24305.78477695  .00002024  00000+0  68009-3 0  9991
2 24903  86.4022 206.4451 0002365  86.4496 273.6972 14.36746301423940
IRIDIUM 22              
1 24907U 97043E   24305.80771011  .00001857  00000+0  63795-3 0  9997
2 24907  86.4021 209.7764 0002218  81.8388 278.3060 14.35603900424006
DUMMY MASS 1            
1 24925U 97048A   24305.85728635  .00002078  00000+0  23163-3 0  9992
2 24925  86.3354 240.7980 0004758 219.2210 140.8671 14.86565157471203
DUMMY MASS 2            
1 24926U 97048B   24305.84891373  .00002107  00000+0  23631-3 0  9995
2 24926  86.3354 242.3685 0005233 237.2975 122.7745 14.86320658470981
IRIDIUM 29              
1 24944U 97051A   24305.83755753  .00001906  00000+0  64914-3 0  9994
2 24944  86.3968 239.5771 0002137  82.6887 277.4552 14.36053798420713
IRIDIUM 33              
1 24946U 97051C   24305.85674956  .00001489  00000+0  52001-3 0  9993
2 24946  86.3883 238.8160 0010061  99.4911 260.7423 14.34609887420002
IRIDIUM 28              
1 24948U 97051E   24305.82049849  .00001996  00000+0  66713-3 0  9997
2 24948  86.3976 237.2296 0002722  88.8355 271.3154 14.37002969421044
